{
  "type": "FeatureCollection",
  "features": [
    {
      "type": "Feature",
      "properties": {
        "name": "Potaro River",
        "width": 3
      },
      "geometry": {
        "type": "LineString",
        "coordinates": [
          [-59.1, 5.0],
          [-59.2, 4.9],
          [-59.3, 4.85],
          [-59.4, 4.8],
          [-59.5, 4.7],
          [-59.6, 4.65],
          [-59.7, 4.6],
          [-59.8, 4.5]
        ]
      }
    },
    {
      "type": "Feature",
      "properties": {
        "name": "Siparuni River",
        "width": 2.5
      },
      "geometry": {
        "type": "LineString",
        "coordinates": [
          [-59.0, 4.8],
          [-59.1, 4.7],
          [-59.2, 4.6],
          [-59.3, 4.5],
          [-59.4, 4.4],
          [-59.5, 4.3],
          [-59.6, 4.25]
        ]
      }
    },
    {
      "type": "Feature",
      "properties": {
        "name": "Essequibo River",
        "width": 4
      },
      "geometry": {
        "type": "LineString",
        "coordinates": [
          [-58.7, 4.0],
          [-58.8, 4.2],
          [-58.9, 4.4],
          [-59.0, 4.6],
          [-59.1, 4.8],
          [-59.2, 5.0],
          [-59.3, 5.2],
          [-59.4, 5.4],
          [-59.5, 5.6]
        ]
      }
    },
    {
      "type": "Feature",
      "properties": {
        "name": "Mazaruni River",
        "width": 3.5
      },
      "geometry": {
        "type": "LineString",
        "coordinates": [
          [-60.0, 5.5],
          [-59.9, 5.4],
          [-59.8, 5.3],
          [-59.7, 5.2],
          [-59.6, 5.1],
          [-59.5, 5.0]
        ]
      }
    },
    {
      "type": "Feature",
      "properties": {
        "name": "Ireng River",
        "width": 2
      },
      "geometry": {
        "type": "LineString",
        "coordinates": [
          [-59.8, 4.2],
          [-59.7, 4.3],
          [-59.6, 4.4],
          [-59.5, 4.5],
          [-59.4, 4.6]
        ]
      }
    }
  ]
} 