{
  "type": "FeatureCollection",
  "features": [
    {
      "type": "Feature",
      "properties": {
        "name": "Guyana",
        "id": "GY"
      },
      "geometry": {
        "type": "Polygon",
        "coordinates": [
          [
            [-59.7582, 8.3675],
            [-59.1016, 7.9992],
            [-58.4821, 7.3472],
            [-58.0782, 6.8092],
            [-57.5422, 6.3213],
            [-57.1477, 5.9731],
            [-57.3072, 5.0731],
            [-57.9143, 4.8126],
            [-57.8602, 4.5318],
            [-58.0445, 4.0606],
            [-57.6013, 3.3348],
            [-57.2812, 3.0757],
            [-57.3572, 2.7685],
            [-56.9392, 2.0555],
            [-56.1232, 1.9297],
            [-55.949, 2.0213],
            [-55.8431, 2.5109],
            [-56.0729, 2.6505],
            [-55.9747, 2.7264],
            [-55.9058, 2.5216],
            [-55.9956, 2.3675],
            [-56.0739, 2.2208],
            [-55.973, 2.0555],
            [-55.5382, 2.1313],
            [-55.097, 2.5233],
            [-54.5247, 2.3118],
            [-54.0881, 2.1054],
            [-53.7783, 2.3767],
            [-53.554, 2.3348],
            [-52.9393, 2.1246],
            [-52.5564, 2.5046],
            [-52.2493, 3.2411],
            [-51.6576, 4.1564],
            [-51.3171, 4.2032],
            [-51.0449, 3.9996],
            [-50.6742, 2.0813],
            [-50.7451, 1.2262],
            [-51.0223, 1.719],
            [-51.4001, 1.3887],
            [-51.8401, 1.5688],
            [-52.2482, 1.5296],
            [-52.5676, 1.9033],
            [-52.9387, 1.9271],
            [-53.3731, 2.0465],
            [-53.6487, 2.3459],
            [-53.7566, 2.3767],
            [-54.088, 2.1054],
            [-54.5247, 2.3118],
            [-55.097, 2.5233],
            [-55.5691, 2.1214],
            [-55.973, 2.0555],
            [-56.0728, 2.2208],
            [-56.2815, 2.3864],
            [-56.5418, 2.3208],
            [-56.7821, 2.0717],
            [-57.3362, 1.9483],
            [-57.666, 1.6821],
            [-58.1104, 1.5072],
            [-58.429, 1.4639],
            [-58.5401, 1.2685],
            [-58.6321, 1.3075],
            [-58.9273, 1.1793],
            [-58.9863, 1.0681],
            [-59.1427, 1.317],
            [-59.5158, 1.4265],
            [-59.8743, 1.5664],
            [-59.9856, 1.8168],
            [-59.9739, 2.2555],
            [-60.1113, 2.6566],
            [-60.1389, 3.0655],
            [-60.4998, 3.4985],
            [-60.7333, 4.0006],
            [-60.9662, 4.5365],
            [-61.111, 4.7868],
            [-61.1595, 5.1895],
            [-61.3122, 5.5592],
            [-61.4108, 6.234],
            [-61.1837, 6.696],
            [-61.1317, 7.0006],
            [-60.9813, 7.2565],
            [-60.6009, 7.0379],
            [-60.2573, 7.0435],
            [-60.5482, 7.3268],
            [-60.3379, 7.5488],
            [-60.1576, 7.5393],
            [-59.7582, 8.3675]
          ]
        ]
      }
    }
  ]
} 