{
  "type": "FeatureCollection",
  "features": [
    {
      "type": "Feature",
      "properties": {
        "name": "Potaro-Siparuni",
        "id": "GY-PT",
        "region_code": 8
      },
      "geometry": {
        "type": "Polygon",
        "coordinates": [
          [
            [-59.8, 5.7],
            [-59.5, 5.6],
            [-59.4, 5.4],
            [-59.2, 5.3],
            [-59.0, 5.0],
            [-58.8, 4.7],
            [-58.7, 4.5],
            [-58.8, 4.3],
            [-58.9, 4.2],
            [-59.0, 4.0],
            [-59.2, 3.9],
            [-59.3, 4.0],
            [-59.4, 4.1],
            [-59.5, 4.3],
            [-59.7, 4.4],
            [-59.9, 4.6],
            [-60.1, 4.8],
            [-60.2, 5.0],
            [-60.0, 5.2],
            [-59.9, 5.4],
            [-59.8, 5.7]
          ]
        ]
      }
    }
  ]
} 